[{"OBJECT_NAME":"STARLINK-32313","OBJECT_ID":"2024-183U","EPOCH":"2026-03-09T12:38:24.595584","MEAN_MOTION":15.30190362,"ECCENTRICITY":0.00012701,"INCLINATION":53.1606,"RA_OF_ASC_NODE":143.4622,"ARG_OF_PERICENTER":105.6514,"MEAN_ANOMALY":254.4627,"EPHEMERIS_TYPE":0,"CLASSIFICATION_TYPE":"U","NORAD_CAT_ID":61527,"ELEMENT_SET_NO":999,"REV_AT_EPOCH":7962,"BSTAR":5.216591e-5,"MEAN_MOTION_DOT":1.186e-5,"MEAN_MOTION_DDOT":0},{"OBJECT_NAME":"CZ-2D DEB","OBJECT_ID":"2010-027D","EPOCH":"2026-03-07T13:36:06.977952","MEAN_MOTION":15.23568143,"ECCENTRICITY":0.0065729,"INCLINATION":97.6621,"RA_OF_ASC_NODE":290.9585,"ARG_OF_PERICENTER":344.0278,"MEAN_ANOMALY":15.8885,"EPHEMERIS_TYPE":0,"CLASSIFICATION_TYPE":"U","NORAD_CAT_ID":38299,"ELEMENT_SET_NO":999,"REV_AT_EPOCH":83553,"BSTAR":0.0024156,"MEAN_MOTION_DOT":0.00061723,"MEAN_MOTION_DDOT":0}]
